{
  "norad_id": 27691,
  "name": "USA 167",
  "history": [
    {
      "epoch": "2026-03-28T11:11:38.732064Z",
      "apogee_km": 35811.0811093008,
      "perigee_km": 35763.19653546587,
      "latitude_deg": -1.4347057369257763,
      "longitude_deg": -122.10562265350107,
      "height_km": 35794.26048981135,
      "semi_major_axis_km": 42165.27582238334,
      "eccentricity": 0.00056782,
      "inclination_deg": 10.8034,
      "raan_deg": 44.1193,
      "arg_perigee_deg": 295.477,
      "mean_anomaly_deg": 252.2701,
      "mean_motion_rev_day": 1.00269845
    }
  ]
}