{"fetched_at":"2026-03-29T02:12:04Z","count":15717,"tles":[{"name":"USA 167","line1":"1 27691U 03008A   26087.46642051 -.00000007  00000+0  00000+0 0  9993","line2":"2 27691  10.8034  44.1193 0005678 295.4770 252.2701  1.00269845  5969","category":"Military"}]}